OBJECT_NAME,OBJECT_ID,EPOCH,MEAN_MOTION,ECCENTRICITY,INCLINATION,RA_OF_ASC_NODE,ARG_OF_PERICENTER,MEAN_ANOMALY,EPHEMERIS_TYPE,CLASSIFICATION_TYPE,NORAD_CAT_ID,ELEMENT_SET_NO,REV_AT_EPOCH,BSTAR,MEAN_MOTION_DOT,MEAN_MOTION_DDOT
TRANSPORTER-16 OBJECT AT,2026-067AT,2026-07-22T07:54:17.283744,15.20042283,.00016423,97.4559,161.4595,132.4750,227.6624,0,U,68457,999,1728,.44634389E-3,.9562E-4,0
SAL-E,2026-067AU,2026-07-23T20:01:08.577120,15.18233244,.0004241,97.4490,162.5642,325.1866,34.9090,0,U,68458,999,1749,.38674E-3,.7853E-4,0
DB GME UT (DB-GLOBE MISSION EARTH-UT),2026-067AV,2026-07-23T20:25:45.927264,15.17822402,.0004244,97.4549,162.6239,311.6777,48.4093,0,U,68459,999,1749,.28825E-3,.5765E-4,0
COSMO,2026-067AW,2026-07-23T19:56:39.308064,15.18529658,.000426,97.4501,162.5952,321.6586,38.4345,0,U,68460,999,1749,.54293E-3,.11151E-3,0
IRIDE-MS1-EAGLET 2-12,2026-067AX,2026-07-23T08:12:51.619104,15.18487617,.0002451,97.4563,162.2589,324.6632,35.4439,0,U,68461,999,1742,.25292E-3,.5148E-4,0
IRIDE-MS1-EAGLET 2-15,2026-067AY,2026-07-23T08:45:34.437024,15.19084366,.0000629,97.4565,162.3839,241.0506,119.0665,0,U,68462,999,1743,.25682E-3,.5319E-4,0
GARAI-B (UNAMUNO),2026-067AZ,2026-07-22T15:12:55.593792,15.18018931,.00027086,97.4540,161.5001,336.7763,23.3348,0,U,68463,999,1731,.37794973E-3,.7624E-4,0
FGN-100-D3,2026-067BA,2026-07-23T08:45:41.673024,15.17971918,.0002428,97.4534,162.1795,0.7243,359.3994,0,U,68464,999,1742,.24612E-3,.4933E-4,0
HOTSAT-2,2026-067BB,2026-07-23T20:01:26.283072,15.17732523,.0002101,97.4544,162.6351,338.1148,21.9995,0,U,68465,999,1749,.16895E-3,.3341E-4,0
DB-PFW,2026-067BC,2026-07-23T20:16:29.980416,15.18042534,.0004695,97.4498,162.5601,331.2917,28.8058,0,U,68466,999,1734,.3553E-3,.7169E-4,0
TRANSPORTER-16 OBJECT BD,2026-067BD,2026-07-22T07:36:13.005216,15.20047829,.00045354,97.4417,161.1281,339.0690,21.0358,0,U,68467,999,1727,.84523249E-3,.18197E-3,0
ERMIS-1,2026-067BE,2026-07-23T20:11:39.621984,15.18235776,.0004607,97.4559,162.6657,301.3768,58.7015,0,U,68468,999,1749,.43532E-3,.885E-4,0
LUNA-2,2026-067BG,2026-07-23T20:32:35.618784,15.17794667,.0005293,97.4493,162.5357,314.3377,45.7423,0,U,68470,999,1749,.27866E-3,.5567E-4,0
LEMUR-2-DELOITTE-3,2026-067BH,2026-07-23T20:04:23.332224,14.91838604,.0002173,97.7590,162.4306,312.8629,47.2407,0,U,68471,999,1719,.57162E-3,.5717E-4,0
FLYLAB1,2026-067BJ,2026-07-23T08:03:00.155808,14.91046805,.0002072,97.7649,161.9255,299.9838,60.1174,0,U,68472,999,1711,.55806E-4,.497E-5,0
VIGORIDE-7,2026-067BK,2026-07-23T14:20:16.694016,15.22901020,.0010472,97.4549,162.9651,33.9129,326.2775,0,U,68473,999,1747,.40201E-3,.9372E-4,0
BLACK KITE-2,2026-067BL,2026-07-23T13:09:12.077280,14.92727428,.000368,97.7568,162.3053,106.4485,253.7139,0,U,68474,999,1715,.20784E-3,.2089E-4,0
UNICORN-2S,2026-067BM,2026-07-23T08:11:00.767040,14.92580339,.0002527,97.7508,161.9146,326.6038,33.5021,0,U,68475,999,1659,.91577E-3,.9371E-4,0
LEMUR-2-JULIA-JOEL,2026-067BN,2026-07-23T08:08:44.134944,14.92969508,.0003507,97.7577,162.1372,115.9323,244.2258,0,U,68476,999,1712,.31137E-3,.3178E-4,0
TRANSPORTER-16 OBJECT BP,2026-067BP,2026-07-22T14:38:40.366752,14.92325259,.00031304,97.7517,161.1884,333.6352,26.4708,0,U,68477,999,1641,.76064834E-3,.7723E-4,0
FOSSASAT-2E25,2026-067BQ,2026-07-23T07:25:10.756128,14.92189247,.0002735,97.7619,162.0687,129.8161,230.3299,0,U,68478,999,1711,.10481E-3,.1011E-4,0
LEMUR-2-PEGGY-2004,2026-067BR,2026-07-23T08:17:49.699104,14.93047192,.0002921,97.7556,162.1075,106.3118,253.8423,0,U,68479,999,1712,.46878E-3,.4824E-4,0
LEMUR-2-IRINA,2026-067BS,2026-07-21T17:08:45.313440,14.93120761,.0004652,97.7644,160.6595,134.6659,225.4940,0,U,68480,999,1688,.24158857E-3,.2463E-4,0
TORO3,2026-067BT,2026-07-23T17:07:15.020256,14.92176100,.0002835,97.7693,162.5635,162.4299,197.7018,0,U,68481,999,1717,.67535E-4,.632E-5,0
LEMUR-2-SEJONG-3,2026-067BU,2026-07-23T07:44:42.138816,14.93139025,.000476,97.7590,162.1729,114.8552,245.3163,0,U,68482,999,1712,.26853E-3,.2745E-4,0
LEMUR-2-CLARA,2026-067BV,2026-07-23T03:19:42.208608,14.92944554,.0003692,97.7654,162.0490,142.0571,218.0909,0,U,68483,999,1709,.30450369E-3,.3105E-4,0
VINDLER 2.2,2026-067BW,2026-07-22T20:30:48.066336,14.92078077,.0001148,97.7676,162.4216,165.0224,195.1029,0,U,68484,999,1709,.11813301E-3,.1144E-4,0
CAPELLA-20 (ACADIA-10),2026-067BX,2026-07-22T17:05:23.887392,14.91390790,.00032344,97.7659,161.4334,27.5233,332.6156,0,U,68485,999,1702,.55864861E-3,.5524E-4,0
VINDLER 2.3,2026-067BY,2026-07-23T14:13:00.309216,14.92078279,.0001522,97.7597,162.2888,118.5217,241.6155,0,U,68486,999,1715,.10701E-3,.1031E-4,0
AE1A,2026-067BZ,2026-07-23T08:15:13.703040,14.92918336,.0003302,97.7553,162.1037,107.0916,253.0665,0,U,68487,999,1712,.33962E-3,.3467E-4,0
