TRANSPORTER-16 OBJECT AT
1 68457U 26067AT  26203.32936671  .00009562  00000+0  44634-3 0  9996
2 68457  97.4559 161.4595 0001642 132.4750 227.6624 15.20042283 17281
SAL-E                   
1 68458U 26067AU  26204.83412705  .00007853  00000+0  38674-3 0  9999
2 68458  97.4490 162.5642 0004241 325.1866  34.9090 15.18233244 17493
DB GME UT (DB-GLOBE MI*)
1 68459U 26067AV  26204.85122601  .00005765  00000+0  28825-3 0  9992
2 68459  97.4549 162.6239 0004244 311.6777  48.4093 15.17822402 17498
COSMO                   
1 68460U 26067AW  26204.83101051  .00011151  00000+0  54293-3 0  9992
2 68460  97.4501 162.5952 0004260 321.6586  38.4345 15.18529658 17493
IRIDE-MS1-EAGLET 2-12   
1 68461U 26067AX  26204.34226411  .00005148  00000+0  25292-3 0  9993
2 68461  97.4563 162.2589 0002451 324.6632  35.4439 15.18487617 17422
IRIDE-MS1-EAGLET 2-15   
1 68462U 26067AY  26204.36498191  .00005319  00000+0  25682-3 0  9995
2 68462  97.4565 162.3839 0000629 241.0506 119.0665 15.19084366 17437
GARAI-B (UNAMUNO)       
1 68463U 26067AZ  26203.63397678  .00007624  00000+0  37795-3 0  9992
2 68463  97.4540 161.5001 0002708 336.7763  23.3348 15.18018931 17316
FGN-100-D3              
1 68464U 26067BA  26204.36506566  .00004933  00000+0  24612-3 0  9996
2 68464  97.4534 162.1795 0002428   0.7243 359.3994 15.17971918 17420
HOTSAT-2                
1 68465U 26067BB  26204.83433198  .00003341  00000+0  16895-3 0  9995
2 68465  97.4544 162.6351 0002101 338.1148  21.9995 15.17732523 17492
DB-PFW                  
1 68466U 26067BC  26204.84479144  .00007169  00000+0  35530-3 0  9997
2 68466  97.4498 162.5601 0004695 331.2917  28.8058 15.18042534 17343
TRANSPORTER-16 OBJECT BD
1 68467U 26067BD  26203.31681719  .00018197  00000+0  84523-3 0  9991
2 68467  97.4417 161.1281 0004535 339.0690  21.0358 15.20047829 17276
ERMIS-1                 
1 68468U 26067BE  26204.84143081  .00008850  00000+0  43532-3 0  9996
2 68468  97.4559 162.6657 0004607 301.3768  58.7015 15.18235776 17493
LUNA-2                  
1 68470U 26067BG  26204.85596781  .00005567  00000+0  27866-3 0  9993
2 68470  97.4493 162.5357 0005293 314.3377  45.7423 15.17794667 17498
LEMUR-2-DELOITTE-3      
1 68471U 26067BH  26204.83638116  .00005717  00000+0  57162-3 0  9990
2 68471  97.7590 162.4306 0002173 312.8629  47.2407 14.91838604 17197
FLYLAB1                 
1 68472U 26067BJ  26204.33541847  .00000497  00000+0  55806-4 0  9994
2 68472  97.7649 161.9255 0002072 299.9838  60.1174 14.91046805 17116
VIGORIDE-7              
1 68473U 26067BK  26204.59741544  .00009372  00000+0  40201-3 0  9992
2 68473  97.4549 162.9651 0010472  33.9129 326.2775 15.22901020 17472
BLACK KITE-2            
1 68474U 26067BL  26204.54805645  .00002089  00000+0  20784-3 0  9993
2 68474  97.7568 162.3053 0003680 106.4485 253.7139 14.92727428 17158
UNICORN-2S              
1 68475U 26067BM  26204.34098110  .00009371  00000+0  91577-3 0  9992
2 68475  97.7508 161.9146 0002527 326.6038  33.5021 14.92580339 16599
LEMUR-2-JULIA-JOEL      
1 68476U 26067BN  26204.33939971  .00003178  00000+0  31137-3 0  9996
2 68476  97.7577 162.1372 0003507 115.9323 244.2258 14.92969508 17127
TRANSPORTER-16 OBJECT BP
1 68477U 26067BP  26203.61018943  .00007723  00000+0  76065-3 0  9993
2 68477  97.7517 161.1884 0003130 333.6352  26.4708 14.92325259 16412
FOSSASAT-2E25           
1 68478U 26067BQ  26204.30915227  .00001011  00000+0  10481-3 0  9996
2 68478  97.7619 162.0687 0002735 129.8161 230.3299 14.92189247 17114
LEMUR-2-PEGGY-2004      
1 68479U 26067BR  26204.34571411  .00004824  00000+0  46878-3 0  9998
2 68479  97.7556 162.1075 0002921 106.3118 253.8423 14.93047192 17129
LEMUR-2-IRINA           
1 68480U 26067BS  26202.71441335  .00002463  00000+0  24159-3 0  9995
2 68480  97.7644 160.6595 0004652 134.6659 225.4940 14.93120761 16881
TORO3                   
1 68481U 26067BT  26204.71336829  .00000632  00000+0  67535-4 0  9991
2 68481  97.7693 162.5635 0002835 162.4299 197.7018 14.92176100 17179
LEMUR-2-SEJONG-3        
1 68482U 26067BU  26204.32270994  .00002745  00000+0  26853-3 0  9993
2 68482  97.7590 162.1729 0004760 114.8552 245.3163 14.93139025 17120
LEMUR-2-CLARA           
1 68483U 26067BV  26204.13868297  .00003105  00000+0  30450-3 0  9991
2 68483  97.7654 162.0490 0003692 142.0571 218.0909 14.92944554 17094
VINDLER 2.2             
1 68484U 26067BW  26203.85472299  .00001144  00000+0  11813-3 0  9996
2 68484  97.7676 162.4216 0001148 165.0224 195.1029 14.92078077 17099
CAPELLA-20 (ACADIA-10)  
1 68485U 26067BX  26203.71208203  .00005524  00000+0  55865-3 0  9995
2 68485  97.7659 161.4334 0003234  27.5233 332.6156 14.91390790 17021
VINDLER 2.3             
1 68486U 26067BY  26204.59236469  .00001031  00000+0  10701-3 0  9997
2 68486  97.7597 162.2888 0001522 118.5217 241.6155 14.92078279 17155
AE1A                    
1 68487U 26067BZ  26204.34390860  .00003467  00000+0  33962-3 0  9996
2 68487  97.7553 162.1037 0003302 107.0916 253.0665 14.92918336 17127
